     2.10           G: GLONASS NAV DATA                     RINEX VERSION / TYPE
teqc  2011Oct11     IGN-E (SPG)         20150127 22:00:53UTCPGM / RUN BY / DATE
Linux 2.4.21-27.ELsmp|Opteron|gcc -static|Linux x86_64|=+   COMMENT
                                                            END OF HEADER
18 15  1 27 21 15  0.0 3.543868660927D-05 9.094947017729D-13 7.560000000000D+04
   -4.031829589844D+03-3.113987922668D+00 0.000000000000D+00 0.000000000000D+00
    1.027918847656D+04-4.566307067871D-01 0.000000000000D+00-3.000000000000D+00
    2.301387988281D+04-3.357944488525D-01-2.793967723846D-09 0.000000000000D+00
19 15  1 27 21 15  0.0-1.168036833405D-04-9.094947017729D-13 7.560000000000D+04
    1.626196484375D+04-2.221184730530D+00 9.313225746155D-10 0.000000000000D+00
    1.051150048828D+04-5.107603073120D-01-9.313225746155D-10 3.000000000000D+00
    1.661101171875D+04 2.497786521912D+00-9.313225746155D-10 0.000000000000D+00
20 15  1 27 21 15  0.0-1.552989706397D-04-1.818989403546D-12 7.560000000000D+04
    2.509991601562D+04-1.458740234375D-02 9.313225746155D-10 0.000000000000D+00
    4.375956054688D+03-2.006826400757D-01-9.313225746155D-10 2.000000000000D+00
    3.562329101562D+02 3.590757369995D+00 9.313225746155D-10 0.000000000000D+00
11 15  1 27 21 15  0.0-9.778887033463D-08 0.000000000000D+00 7.641000000000D+04
   -2.214632812500D+03 5.111894607544D-01 1.862645149231D-09 0.000000000000D+00
   -2.168627978516D+04 1.743712425232D+00-0.000000000000D+00 0.000000000000D+00
    1.317298437500D+04 2.964936256409D+00-9.313225746155D-10 0.000000000000D+00
21 15  1 27 21 15  0.0-3.840774297714D-06 1.818989403546D-12 7.668000000000D+04
    2.036667236328D+04 2.033437728882D+00 0.000000000000D+00 0.000000000000D+00
   -3.917662109375D+03 1.720056533813D-01-9.313225746155D-10 4.000000000000D+00
   -1.486622900391D+04 2.736783981323D+00 2.793967723846D-09 1.100000000000D+01
 1 15  1 27 21 45  0.0-1.567564904690D-04 0.000000000000D+00 7.740000000000D+04
   -3.534179687500D+02 1.224579811096D+00 2.793967723846D-09 0.000000000000D+00
   -1.732469384766D+04-2.253048896790D+00-9.313225746155D-10 1.000000000000D+00
    1.872032031250D+04-2.059499740601D+00-9.313225746155D-10 0.000000000000D+00
 9 15  1 27 21 45  0.0-5.617737770081D-06 9.094947017729D-13 7.740000000000D+04
    1.552599414062D+04 1.137768745422D+00 0.000000000000D+00 0.000000000000D+00
    1.348238574219D+04 1.741509437561D+00-0.000000000000D+00-2.000000000000D+00
    1.515028515625D+04-2.702519416809D+00-9.313225746155D-10 0.000000000000D+00
 8 15  1 27 21 45  0.0-2.619996666908D-05 0.000000000000D+00 7.740000000000D+04
    1.114725439453D+04 1.437692642212D-01 2.793967723846D-09 0.000000000000D+00
   -2.260226269531D+04-5.527973175049D-01-1.862645149231D-09 6.000000000000D+00
    4.056206054688D+03-3.510954856873D+00 9.313225746155D-10 0.000000000000D+00
 7 15  1 27 21 45  0.0-1.136055216193D-04-9.094947017729D-13 7.740000000000D+04
    1.605848925781D+04-1.015709877014D+00 9.313225746155D-10 0.000000000000D+00
   -1.499864013672D+04 1.459567070007D+00-9.313225746155D-10 5.000000000000D+00
   -1.291527490234D+04-2.953861236572D+00 2.793967723846D-09 0.000000000000D+00
10 15  1 27 21 45  0.0 6.612390279770D-06 0.000000000000D+00 7.740000000000D+04
    1.025658642578D+04 1.554491043091D+00 1.862645149231D-09 0.000000000000D+00
   -2.908822265625D+03 2.774237632751D+00-9.313225746155D-10-7.000000000000D+00
    2.315404150391D+04-3.461017608643D-01-1.862645149231D-09 0.000000000000D+00
11 15  1 27 21 45  0.0-9.685754776001D-08 0.000000000000D+00 7.740000000000D+04
   -7.848095703125D+02 1.089887619019D+00 2.793967723846D-09 0.000000000000D+00
   -1.808641748047D+04 2.210223197937D+00-9.313225746155D-10 0.000000000000D+00
    1.792928369141D+04 2.285523414612D+00-9.313225746155D-10 0.000000000000D+00
16 15  1 27 21 45  0.0-2.368446439505D-05 9.094947017729D-13 7.740000000000D+04
    1.194145507812D+04 9.749794006348D-02-9.313225746155D-10 0.000000000000D+00
    2.247217480469D+04-2.068986892700D-01 0.000000000000D+00-1.000000000000D+00
   -1.003159179688D+03-3.586219787598D+00 0.000000000000D+00 0.000000000000D+00
18 15  1 27 21 45  0.0 3.544241189957D-05 1.818989403546D-12 7.740000000000D+04
   -9.529895019531D+03-2.943765640259D+00 0.000000000000D+00 0.000000000000D+00
    9.881466796875D+03 9.543418884277D-03 9.313225746155D-10-3.000000000000D+00
    2.152985449219D+04-1.302289962769D+00-2.793967723846D-09 0.000000000000D+00
19 15  1 27 21 45  0.0-1.168055459857D-04-9.094947017729D-13 7.740000000000D+04
    1.171612109375D+04-2.790070533752D+00 9.313225746155D-10 0.000000000000D+00
    9.856251953125D+03-1.886358261108D-01-0.000000000000D+00 3.000000000000D+00
    2.040715039062D+04 1.692784309387D+00-1.862645149231D-09 0.000000000000D+00
20 15  1 27 21 45  0.0-1.553026959300D-04-1.818989403546D-12 7.740000000000D+04
    2.426081103516D+04-9.137506484985D-01 9.313225746155D-10 0.000000000000D+00
    3.960371582031D+03-2.192525863647D-01-1.862645149231D-09 2.000000000000D+00
    6.722012207031D+03 3.436265945435D+00 0.000000000000D+00 0.000000000000D+00
21 15  1 27 21 45  0.0-3.837049007416D-06 1.818989403546D-12 7.740000000000D+04
    2.338953076172D+04 1.294735908508D+00 0.000000000000D+00 0.000000000000D+00
   -3.916957031250D+03-1.388120651245D-01-1.862645149231D-09 4.000000000000D+00
   -9.429562988281D+03 3.264754295349D+00 2.793967723846D-09 1.100000000000D+01
